[{"OBJECT_NAME":"YAOGAN-36 04C","OBJECT_ID":"2022-171E","EPOCH":"2026-03-09T18:55:44.889600","MEAN_MOTION":15.29852307,"ECCENTRICITY":0.00066848,"INCLINATION":34.9797,"RA_OF_ASC_NODE":96.6578,"ARG_OF_PERICENTER":275.3761,"MEAN_ANOMALY":84.6192,"EPHEMERIS_TYPE":0,"CLASSIFICATION_TYPE":"U","NORAD_CAT_ID":54750,"ELEMENT_SET_NO":999,"REV_AT_EPOCH":18024,"BSTAR":0.00054591902,"MEAN_MOTION_DOT":0.00016196,"MEAN_MOTION_DDOT":0},{"OBJECT_NAME":"STARLINK-32612","OBJECT_ID":"2024-210P","EPOCH":"2026-03-09T08:12:59.251680","MEAN_MOTION":15.27601895,"ECCENTRICITY":0.00030436,"INCLINATION":43.0011,"RA_OF_ASC_NODE":182.0561,"ARG_OF_PERICENTER":285.6662,"MEAN_ANOMALY":74.3854,"EPHEMERIS_TYPE":0,"CLASSIFICATION_TYPE":"U","NORAD_CAT_ID":61972,"ELEMENT_SET_NO":999,"REV_AT_EPOCH":7482,"BSTAR":0.0012230411,"MEAN_MOTION_DOT":0.00033572,"MEAN_MOTION_DDOT":0}]
